[{"OBJECT_NAME":"STARLINK-30790","OBJECT_ID":"2023-162K","EPOCH":"2026-03-09T05:19:51.961152","MEAN_MOTION":15.13105037,"ECCENTRICITY":0.00103438,"INCLINATION":42.9975,"RA_OF_ASC_NODE":130.2155,"ARG_OF_PERICENTER":31.6175,"MEAN_ANOMALY":328.5291,"EPHEMERIS_TYPE":0,"CLASSIFICATION_TYPE":"U","NORAD_CAT_ID":58127,"ELEMENT_SET_NO":999,"REV_AT_EPOCH":13229,"BSTAR":0.0021713056,"MEAN_MOTION_DOT":0.00039164,"MEAN_MOTION_DDOT":0},{"OBJECT_NAME":"H-2A R\/B","OBJECT_ID":"2014-029F","EPOCH":"2026-03-09T22:37:37.455168","MEAN_MOTION":15.13509735,"ECCENTRICITY":0.00104243,"INCLINATION":98.1953,"RA_OF_ASC_NODE":57.5904,"ARG_OF_PERICENTER":119.3216,"MEAN_ANOMALY":240.9056,"EPHEMERIS_TYPE":0,"CLASSIFICATION_TYPE":"U","NORAD_CAT_ID":39771,"ELEMENT_SET_NO":999,"REV_AT_EPOCH":64385,"BSTAR":0.00040980878,"MEAN_MOTION_DOT":7.275e-5,"MEAN_MOTION_DDOT":0}]
